METOP-C
1 43689U 18087A   26119.28934386  .00000116  00000+0  72707-4 0  9990
2 43689  98.6676 179.7787 0000678  38.9890 321.1336 14.21512637387883
